COSMOS 2251 DEB         
1 36380U 93036AZH 17344.65738736  .00012477  00000-0  59474-3 0  9998
2 36380  73.9752 223.4952 0006321  28.2282 331.9256 15.19130818444613
